NAVSTAR 77 (USA 289)    
1 43873U 18109A   24117.26571712  .00000065  00000+0  00000+0 0  9999
2 43873  55.2769 123.0788 0028716 195.8897 185.1430  2.00553689 39395
